QIANFAN-41              
1 62242U 24232F   25298.54604073  .00000207  00000+0  30199-3 0  9997
2 62242  89.0034  46.0488 0012752 336.4800  23.5767 13.50981058 92745
QIANFAN-42              
1 62243U 24232G   25298.51280964  .00000810  00000+0  34372-3 0  9991
2 62243  89.0030  42.8538 0013376 236.6602 123.3311 14.24409379 94509
QIANFAN-43              
1 62244U 24232H   25298.54194877  .00000199  00000+0  28946-3 0  9992
2 62244  89.0039  46.1124 0014391 341.5466  18.5162 13.50981993 61350
QIANFAN-44              
1 62245U 24232J   25298.45546854  .00000202  00000+0  29463-3 0  9999
2 62245  89.0037  45.9327 0012556 339.4152  20.6492 13.50983221 92811
QIANFAN-45              
1 62246U 24232K   25298.49670434  .00000192  00000+0  27893-3 0  9999
2 62246  89.0041  46.0733 0013185 338.6167  21.4431 13.50979765 92748
QIANFAN-46              
1 62247U 24232L   25298.44729593  .00000212  00000+0  31038-3 0  9995
2 62247  89.0037  46.1492 0013415 344.6797  15.3946 13.50980408 92692
QIANFAN-47              
1 62248U 24232M   25298.52547691  .00000207  00000+0  30164-3 0  9995
2 62248  89.0033  46.0762 0013804 343.3343  16.7353 13.50982201 92738
QIANFAN-48              
1 62249U 24232N   25298.48853593  .00000208  00000+0  30313-3 0  9999
2 62249  89.0037  46.0799 0016115 345.3406  14.7276 13.50978243 92736
